ONEWEB-0656             
1 55817U 23029X   24338.67960127 -.00000032  00000+0 -11072-3 0  9990
2 55817  87.9268  25.9280 0002244 112.7046 247.4325 13.20770834 87846
ONEWEB-0657             
1 55818U 23029Y   24338.71107266  .00000138  00000+0  31169-3 0  9997
2 55818  87.9187  56.4334 0001827 130.4457 229.6836 13.19726058 85669
ONEWEB-0658             
1 55819U 23029Z   24338.47887449  .00000037  00000+0  61245-4 0  9996
2 55819  87.9184  56.4140 0001236  91.8845 268.2430 13.19725317 84965
ONEWEB-0660             
1 55820U 23029AA  24338.59529716 -.00000146  00000+0 -42729-3 0  9999
2 55820  87.9027  41.1573 0001791  87.0706 273.0629 13.14504042 85750
ONEWEB-0661             
1 55821U 23029AB  24338.55407740  .00000141  00000+0  34551-3 0  9995
2 55821  87.9023  41.2340 0001909  87.5192 272.6156 13.14502113 85730
ONEWEB-0662             
1 55822U 23029AC  24338.58895341 -.00000157  00000+0 -45920-3 0  9998
2 55822  87.9024  41.2337 0001679  87.1058 273.0264 13.14502661 85787
ONEWEB-0663             
1 55823U 23029AD  24338.59320438 -.00000005  00000+0 -43715-4 0  9993
2 55823  87.9265  26.0044 0001777  84.2796 275.8540 13.20815744 87142
ONEWEB-0664             
1 55824U 23029AE  24338.59122067  .00000017  00000+0  95819-5 0  9996
2 55824  87.9274  26.0209 0002319  93.5133 266.6265 13.20772787 87148
